OBJECT_NAME,OBJECT_ID,EPOCH,MEAN_MOTION,ECCENTRICITY,INCLINATION,RA_OF_ASC_NODE,ARG_OF_PERICENTER,MEAN_ANOMALY,EPHEMERIS_TYPE,CLASSIFICATION_TYPE,NORAD_CAT_ID,ELEMENT_SET_NO,REV_AT_EPOCH,BSTAR,MEAN_MOTION_DOT,MEAN_MOTION_DDOT
2026-134E,2026-134E,2026-06-28T22:06:19.120896,15.09584850,.00149142,97.7057,250.0812,231.4741,128.5151,0,U,69542,999,207,.29037857E-3,.461E-4,0
2026-134F,2026-134F,2026-06-28T22:05:43.075680,15.09630793,.00141973,97.7009,250.0741,233.2786,126.7140,0,U,69543,999,207,.28809055E-3,.4578E-4,0
2026-134G,2026-134G,2026-06-28T22:04:37.257024,15.09714723,.00146489,97.7053,250.0822,234.0856,125.9014,0,U,69544,999,207,.29225931E-3,.4657E-4,0
2026-134H,2026-134H,2026-06-28T18:52:53.021856,15.09779519,.0014498,97.7038,249.9476,236.0181,123.9671,0,U,69545,999,204,.29037038E-3,.4634E-4,0
STARLINK-37880,2026-135A,2026-06-28T23:45:54.681408,15.80919460,.00010866,97.2836,207.6679,105.9116,254.2272,0,U,69546,999,212,.12337602E-2,.244063E-2,0
STARLINK-37881,2026-135B,2026-06-28T23:45:05.671872,15.80909731,.00009277,97.2835,207.6683,96.8491,263.2883,0,U,69547,999,212,.11877079E-2,.234586E-2,0
STARLINK-37265,2026-135C,2026-06-28T19:10:39.882144,15.80896079,.00003976,97.2837,207.4681,164.2831,195.8450,0,U,69548,999,209,.10273533E-2,.202008E-2,0
STARLINK-37871,2026-135D,2026-06-28T23:42:46.893600,15.80926292,.00011595,97.2826,207.6703,114.2678,245.8712,0,U,69549,999,212,.12214333E-2,.24163E-2,0
STARLINK-37865,2026-135E,2026-06-28T23:40:42.163104,15.80907164,.00011926,97.2828,207.6720,104.7040,255.4361,0,U,69550,999,212,.10761292E-2,.211953E-2,0
STARLINK-37862,2026-135F,2026-06-28T23:36:40.168800,15.80939290,.0000684,97.2828,207.6760,123.5974,236.5360,0,U,69551,999,212,.16567746E-2,.33144E-2,0
STARLINK-37861,2026-135G,2026-06-28T23:33:55.774656,15.80951413,.00012508,97.2830,207.6787,131.1213,229.0164,0,U,69552,999,212,.1579249E-2,.315504E-2,0
STARLINK-37859,2026-135H,2026-06-28T23:32:11.194368,15.80925960,.00018258,97.2824,207.6802,134.0002,226.1417,0,U,69553,999,212,.15890604E-2,.317156E-2,0
STARLINK-37860,2026-135J,2026-06-28T22:00:01.999584,15.80766470,.00014522,97.2828,207.6146,84.9719,271.2308,0,U,69554,999,319,.60724979E-3,.117488E-2,0
STARLINK-37858,2026-135K,2026-06-28T17:24:37.787904,15.82724624,.00087469,97.2819,207.4161,237.1028,122.9401,0,U,69555,999,208,.18388595E-1,.4544583E-1,0
STARLINK-37927,2026-135L,2026-06-28T22:00:01.999584,15.80750274,.00012974,97.2828,207.6199,82.4898,285.4058,0,U,69556,999,319,.80876205E-3,.157123E-2,0
STARLINK-37929,2026-135M,2026-06-28T23:28:01.373088,15.80952718,.00016965,97.2826,207.6843,129.7884,230.3534,0,U,69557,999,212,.16586768E-2,.332033E-2,0
STARLINK-37954,2026-135N,2026-06-28T14:19:20.733600,15.80817111,.00009911,97.2830,207.2843,118.4544,241.6824,0,U,69558,999,206,.13774853E-2,.272126E-2,0
STARLINK-37958,2026-135P,2026-06-28T11:13:30.519840,15.80736272,.00017024,97.2844,207.1543,86.6387,273.5076,0,U,69559,999,204,.36333182E-2,.756976E-2,0
STARLINK-37950,2026-135Q,2026-06-28T08:10:58.717632,15.80972039,.00011308,97.2837,207.0196,133.1005,227.0358,0,U,69560,999,202,.189846E-2,.382639E-2,0
STARLINK-37952,2026-135R,2026-06-28T23:20:29.830272,15.80976844,.00017966,97.2825,207.6929,129.9035,230.2392,0,U,69561,999,212,.19179867E-2,.386839E-2,0
STARLINK-37935,2026-135S,2026-06-28T14:12:27.694080,15.80863785,.00007922,97.2831,207.2917,102.6446,257.4911,0,U,69562,999,206,.57143684E-3,.110957E-2,0
STARLINK-37936,2026-135T,2026-06-28T15:33:30.370752,15.80909615,.00011181,97.2822,207.3673,107.7754,252.3636,0,U,69563,999,207,.11198078E-2,.220812E-2,0
STARLINK-37932,2026-135U,2026-06-28T14:01:50.174400,15.80889212,.00009022,97.2829,207.3012,129.0625,231.0724,0,U,69564,999,206,.69249434E-3,.135024E-2,0
STARLINK-37916,2026-135V,2026-06-28T14:01:03.787104,15.80847909,.00026906,97.2842,207.3030,79.5753,280.5818,0,U,69565,999,206,.95626915E-3,.187306E-2,0
STARLINK-37909,2026-135W,2026-06-28T15:23:06.567936,15.80905002,.00009362,97.2825,207.3783,160.1800,199.9505,0,U,69566,999,207,.8307442E-3,.162644E-2,0
STARLINK-37934,2026-135X,2026-06-28T15:27:44.115840,15.80872684,.00009527,97.2820,207.3737,108.3650,251.7722,0,U,69567,999,207,.83106711E-3,.162464E-2,0
STARLINK-37938,2026-135Y,2026-06-28T15:24:11.451744,15.80829170,.00007419,97.2827,207.3769,143.9016,216.2302,0,U,69568,999,207,.2913264E-3,.56052E-3,0
STARLINK-37924,2026-135Z,2026-06-28T21:24:51.149088,15.80855496,.00012513,97.2838,207.6483,66.9411,293.1990,0,U,69569,999,211,.50058543E-3,.96991E-3,0
SHIJIAN-31 (SJ-31),2026-136A,2026-06-28T10:03:56.975616,1.92225963,.6941009,63.4787,354.9210,171.7767,212.4468,0,U,69570,999,30,0,-.125E-5,0
