2026-134E               
1 69542U 26134E   26179.92105464  .00004610  00000+0  29038-3 0  9993
2 69542  97.7057 250.0812 0014914 231.4741 128.5151 15.09584850  2079
2026-134F               
1 69543U 26134F   26179.92063745  .00004578  00000+0  28809-3 0  9997
2 69543  97.7009 250.0741 0014197 233.2786 126.7140 15.09630793  2076
2026-134G               
1 69544U 26134G   26179.91987566  .00004657  00000+0  29226-3 0  9995
2 69544  97.7053 250.0822 0014648 234.0856 125.9014 15.09714723  2071
2026-134H               
1 69545U 26134H   26179.78672479  .00004634  00000+0  29037-3 0  9990
2 69545  97.7038 249.9476 0014498 236.0181 123.9671 15.09779519  2041
STARLINK-37880          
1 69546U 26135A   26179.99021622  .00244063  00000+0  12338-2 0  9990
2 69546  97.2836 207.6679 0001086 105.9116 254.2272 15.80919460  2124
STARLINK-37881          
1 69547U 26135B   26179.98964898  .00234586  00000+0  11877-2 0  9997
2 69547  97.2835 207.6683 0000927  96.8491 263.2883 15.80909731  2124
STARLINK-37265          
1 69548U 26135C   26179.79907271  .00202008  00000+0  10274-2 0  9993
2 69548  97.2837 207.4681 0000397 164.2831 195.8450 15.80896079  2098
STARLINK-37871          
1 69549U 26135D   26179.98804275  .00241630  00000+0  12214-2 0  9995
2 69549  97.2826 207.6703 0001159 114.2678 245.8712 15.80926292  2127
STARLINK-37865          
1 69550U 26135E   26179.98659911  .00211953  00000+0  10761-2 0  9992
2 69550  97.2828 207.6720 0001192 104.7040 255.4361 15.80907164  2128
STARLINK-37862          
1 69551U 26135F   26179.98379825  .00331440  00000+0  16568-2 0  9991
2 69551  97.2828 207.6760 0000684 123.5974 236.5360 15.80939290  2127
STARLINK-37861          
1 69552U 26135G   26179.98189554  .00315504  00000+0  15792-2 0  9991
2 69552  97.2830 207.6787 0001250 131.1213 229.0164 15.80951413  2121
STARLINK-37859          
1 69553U 26135H   26179.98068512  .00317156  00000+0  15891-2 0  9997
2 69553  97.2824 207.6802 0001825 134.0002 226.1417 15.80925960  2126
STARLINK-37860          
1 69554U 26135J   26179.91668981  .00117488  00000+0  60725-3 0  9990
2 69554  97.2828 207.6146 0001452  84.9719 271.2308 15.80766470  3193
STARLINK-37858          
1 69555U 26135K   26179.72543736  .04544583  00000+0  18389-1 0  9991
2 69555  97.2819 207.4161 0008746 237.1028 122.9401 15.82724624  2087
STARLINK-37927          
1 69556U 26135L   26179.91668981  .00157123  00000+0  80876-3 0  9991
2 69556  97.2828 207.6199 0001297  82.4898 285.4058 15.80750274  3195
STARLINK-37929          
1 69557U 26135M   26179.97779367  .00332033  00000+0  16587-2 0  9991
2 69557  97.2826 207.6843 0001696 129.7884 230.3534 15.80952718  2120
STARLINK-37954          
1 69558U 26135N   26179.59676775  .00272126  00000+0  13775-2 0  9991
2 69558  97.2830 207.2843 0000991 118.4544 241.6824 15.80817111  2064
STARLINK-37958          
1 69559U 26135P   26179.46771435  .00756976  00000+0  36333-2 0  9992
2 69559  97.2844 207.1543 0001702  86.6387 273.5076 15.80736272  2047
STARLINK-37950          
1 69560U 26135Q   26179.34095738  .00382639  00000+0  18985-2 0  9990
2 69560  97.2837 207.0196 0001130 133.1005 227.0358 15.80972039  2022
STARLINK-37952          
1 69561U 26135R   26179.97256748  .00386839  00000+0  19180-2 0  9994
2 69561  97.2825 207.6929 0001796 129.9035 230.2392 15.80976844  2127
STARLINK-37935          
1 69562U 26135S   26179.59198720  .00110957  00000+0  57144-3 0  9997
2 69562  97.2831 207.2917 0000792 102.6446 257.4911 15.80863785  2067
STARLINK-37936          
1 69563U 26135T   26179.64826818  .00220812  00000+0  11198-2 0  9990
2 69563  97.2822 207.3673 0001118 107.7754 252.3636 15.80909615  2071
STARLINK-37932          
1 69564U 26135U   26179.58460850  .00135024  00000+0  69249-3 0  9995
2 69564  97.2829 207.3012 0000902 129.0625 231.0724 15.80889212  2061
STARLINK-37916          
1 69565U 26135V   26179.58407161  .00187306  00000+0  95627-3 0  9991
2 69565  97.2842 207.3030 0002690  79.5753 280.5818 15.80847909  2064
STARLINK-37909          
1 69566U 26135W   26179.64104824  .00162644  00000+0  83074-3 0  9990
2 69566  97.2825 207.3783 0000936 160.1800 199.9505 15.80905002  2078
STARLINK-37934          
1 69567U 26135X   26179.64426060  .00162464  00000+0  83107-3 0  9997
2 69567  97.2820 207.3737 0000952 108.3650 251.7722 15.80872684  2075
STARLINK-37938          
1 69568U 26135Y   26179.64179921  .00056052  00000+0  29133-3 0  9993
2 69568  97.2827 207.3769 0000741 143.9016 216.2302 15.80829170  2077
STARLINK-37924          
1 69569U 26135Z   26179.89225867  .00096991  00000+0  50059-3 0  9999
2 69569  97.2838 207.6483 0001251  66.9411 293.1990 15.80855496  2118
SHIJIAN-31 (SJ-31)      
1 69570U 26136A   26179.41940944 -.00000125  00000+0  00000+0 0  9992
2 69570  63.4787 354.9210 6941009 171.7767 212.4468  1.92225963   302
